<?xml version="1.0" encoding="UTF-8"?>
<ndm xmlns:xsi="http://www.w3.org/2001/XMLSchema-instance" xsi:noNamespaceSchemaLocation="https://sanaregistry.org/r/ndmxml_unqualified/ndmxml-2.0.0-master-2.0.xsd">
<omm id="CCSDS_OMM_VERS" version="2.0">
<header><CREATION_DATE/><ORIGINATOR/></header><body><segment><metadata><OBJECT_NAME>ORBCOMM FM37</OBJECT_NAME><OBJECT_ID>2008-031E</OBJECT_ID><CENTER_NAME>EARTH</CENTER_NAME><REF_FRAME>TEME</REF_FRAME><TIME_SYSTEM>UTC</TIME_SYSTEM><MEAN_ELEMENT_THEORY>SGP4</MEAN_ELEMENT_THEORY></metadata><data><meanElements><EPOCH>2025-06-15T17:38:28.061664</EPOCH><MEAN_MOTION>14.79768572</MEAN_MOTION><ECCENTRICITY>.0005094</ECCENTRICITY><INCLINATION>48.4414</INCLINATION><RA_OF_ASC_NODE>350.5380</RA_OF_ASC_NODE><ARG_OF_PERICENTER>3.4033</ARG_OF_PERICENTER><MEAN_ANOMALY>103.5360</MEAN_ANOMALY></meanElements><tleParameters><EPHEMERIS_TYPE>0</EPHEMERIS_TYPE><CLASSIFICATION_TYPE>U</CLASSIFICATION_TYPE><NORAD_CAT_ID>33064</NORAD_CAT_ID><ELEMENT_SET_NO>999</ELEMENT_SET_NO><REV_AT_EPOCH>91383</REV_AT_EPOCH><BSTAR>.19194E-3</BSTAR><MEAN_MOTION_DOT>.1247E-4</MEAN_MOTION_DOT><MEAN_MOTION_DDOT>0</MEAN_MOTION_DDOT></tleParameters></data></segment></body></omm>
<omm id="CCSDS_OMM_VERS" version="2.0">
<header><CREATION_DATE/><ORIGINATOR/></header><body><segment><metadata><OBJECT_NAME>ORBCOMM FM40</OBJECT_NAME><OBJECT_ID>2008-031F</OBJECT_ID><CENTER_NAME>EARTH</CENTER_NAME><REF_FRAME>TEME</REF_FRAME><TIME_SYSTEM>UTC</TIME_SYSTEM><MEAN_ELEMENT_THEORY>SGP4</MEAN_ELEMENT_THEORY></metadata><data><meanElements><EPOCH>2025-06-15T22:18:30.393216</EPOCH><MEAN_MOTION>14.82026735</MEAN_MOTION><ECCENTRICITY>.0006005</ECCENTRICITY><INCLINATION>48.4423</INCLINATION><RA_OF_ASC_NODE>333.6710</RA_OF_ASC_NODE><ARG_OF_PERICENTER>18.4826</ARG_OF_PERICENTER><MEAN_ANOMALY>144.1639</MEAN_ANOMALY></meanElements><tleParameters><EPHEMERIS_TYPE>0</EPHEMERIS_TYPE><CLASSIFICATION_TYPE>U</CLASSIFICATION_TYPE><NORAD_CAT_ID>33065</NORAD_CAT_ID><ELEMENT_SET_NO>999</ELEMENT_SET_NO><REV_AT_EPOCH>91397</REV_AT_EPOCH><BSTAR>.25905E-3</BSTAR><MEAN_MOTION_DOT>.1863E-4</MEAN_MOTION_DOT><MEAN_MOTION_DDOT>0</MEAN_MOTION_DDOT></tleParameters></data></segment></body></omm>
<omm id="CCSDS_OMM_VERS" version="2.0">
<header><CREATION_DATE/><ORIGINATOR/></header><body><segment><metadata><OBJECT_NAME>VESSELSAT 1</OBJECT_NAME><OBJECT_ID>2011-058C</OBJECT_ID><CENTER_NAME>EARTH</CENTER_NAME><REF_FRAME>TEME</REF_FRAME><TIME_SYSTEM>UTC</TIME_SYSTEM><MEAN_ELEMENT_THEORY>SGP4</MEAN_ELEMENT_THEORY></metadata><data><meanElements><EPOCH>2025-06-15T21:32:32.321184</EPOCH><MEAN_MOTION>14.11353963</MEAN_MOTION><ECCENTRICITY>.0013718</ECCENTRICITY><INCLINATION>19.9614</INCLINATION><RA_OF_ASC_NODE>101.6859</RA_OF_ASC_NODE><ARG_OF_PERICENTER>171.8816</ARG_OF_PERICENTER><MEAN_ANOMALY>188.1812</MEAN_ANOMALY></meanElements><tleParameters><EPHEMERIS_TYPE>0</EPHEMERIS_TYPE><CLASSIFICATION_TYPE>U</CLASSIFICATION_TYPE><NORAD_CAT_ID>37840</NORAD_CAT_ID><ELEMENT_SET_NO>999</ELEMENT_SET_NO><REV_AT_EPOCH>70635</REV_AT_EPOCH><BSTAR>.38754E-4</BSTAR><MEAN_MOTION_DOT>.336E-5</MEAN_MOTION_DOT><MEAN_MOTION_DDOT>0</MEAN_MOTION_DDOT></tleParameters></data></segment></body></omm>
<omm id="CCSDS_OMM_VERS" version="2.0">
<header><CREATION_DATE/><ORIGINATOR/></header><body><segment><metadata><OBJECT_NAME>ORBCOMM FM109</OBJECT_NAME><OBJECT_ID>2014-040A</OBJECT_ID><CENTER_NAME>EARTH</CENTER_NAME><REF_FRAME>TEME</REF_FRAME><TIME_SYSTEM>UTC</TIME_SYSTEM><MEAN_ELEMENT_THEORY>SGP4</MEAN_ELEMENT_THEORY></metadata><data><meanElements><EPOCH>2025-06-15T21:11:53.829024</EPOCH><MEAN_MOTION>14.58176675</MEAN_MOTION><ECCENTRICITY>.0001885</ECCENTRICITY><INCLINATION>47.0047</INCLINATION><RA_OF_ASC_NODE>22.4516</RA_OF_ASC_NODE><ARG_OF_PERICENTER>323.4960</ARG_OF_PERICENTER><MEAN_ANOMALY>36.5797</MEAN_ANOMALY></meanElements><tleParameters><EPHEMERIS_TYPE>0</EPHEMERIS_TYPE><CLASSIFICATION_TYPE>U</CLASSIFICATION_TYPE><NORAD_CAT_ID>40086</NORAD_CAT_ID><ELEMENT_SET_NO>999</ELEMENT_SET_NO><REV_AT_EPOCH>58087</REV_AT_EPOCH><BSTAR>.13102E-3</BSTAR><MEAN_MOTION_DOT>.44E-5</MEAN_MOTION_DOT><MEAN_MOTION_DDOT>0</MEAN_MOTION_DDOT></tleParameters></data></segment></body></omm>
<omm id="CCSDS_OMM_VERS" version="2.0">
<header><CREATION_DATE/><ORIGINATOR/></header><body><segment><metadata><OBJECT_NAME>ORBCOMM FM107</OBJECT_NAME><OBJECT_ID>2014-040B</OBJECT_ID><CENTER_NAME>EARTH</CENTER_NAME><REF_FRAME>TEME</REF_FRAME><TIME_SYSTEM>UTC</TIME_SYSTEM><MEAN_ELEMENT_THEORY>SGP4</MEAN_ELEMENT_THEORY></metadata><data><meanElements><EPOCH>2025-06-15T23:31:53.294880</EPOCH><MEAN_MOTION>14.58245021</MEAN_MOTION><ECCENTRICITY>.0001598</ECCENTRICITY><INCLINATION>47.0062</INCLINATION><RA_OF_ASC_NODE>22.9580</RA_OF_ASC_NODE><ARG_OF_PERICENTER>272.6422</ARG_OF_PERICENTER><MEAN_ANOMALY>87.4280</MEAN_ANOMALY></meanElements><tleParameters><EPHEMERIS_TYPE>0</EPHEMERIS_TYPE><CLASSIFICATION_TYPE>U</CLASSIFICATION_TYPE><NORAD_CAT_ID>40087</NORAD_CAT_ID><ELEMENT_SET_NO>999</ELEMENT_SET_NO><REV_AT_EPOCH>58100</REV_AT_EPOCH><BSTAR>.15434E-3</BSTAR><MEAN_MOTION_DOT>.55E-5</MEAN_MOTION_DOT><MEAN_MOTION_DDOT>0</MEAN_MOTION_DDOT></tleParameters></data></segment></body></omm>
<omm id="CCSDS_OMM_VERS" version="2.0">
<header><CREATION_DATE/><ORIGINATOR/></header><body><segment><metadata><OBJECT_NAME>ORBCOMM FM106</OBJECT_NAME><OBJECT_ID>2014-040C</OBJECT_ID><CENTER_NAME>EARTH</CENTER_NAME><REF_FRAME>TEME</REF_FRAME><TIME_SYSTEM>UTC</TIME_SYSTEM><MEAN_ELEMENT_THEORY>SGP4</MEAN_ELEMENT_THEORY></metadata><data><meanElements><EPOCH>2025-06-15T12:45:58.369248</EPOCH><MEAN_MOTION>14.69442917</MEAN_MOTION><ECCENTRICITY>.0016019</ECCENTRICITY><INCLINATION>47.0589</INCLINATION><RA_OF_ASC_NODE>207.3127</RA_OF_ASC_NODE><ARG_OF_PERICENTER>56.7920</ARG_OF_PERICENTER><MEAN_ANOMALY>303.4505</MEAN_ANOMALY></meanElements><tleParameters><EPHEMERIS_TYPE>0</EPHEMERIS_TYPE><CLASSIFICATION_TYPE>U</CLASSIFICATION_TYPE><NORAD_CAT_ID>40088</NORAD_CAT_ID><ELEMENT_SET_NO>999</ELEMENT_SET_NO><REV_AT_EPOCH>58323</REV_AT_EPOCH><BSTAR>.13488E-3</BSTAR><MEAN_MOTION_DOT>.618E-5</MEAN_MOTION_DOT><MEAN_MOTION_DDOT>0</MEAN_MOTION_DDOT></tleParameters></data></segment></body></omm>
<omm id="CCSDS_OMM_VERS" version="2.0">
<header><CREATION_DATE/><ORIGINATOR/></header><body><segment><metadata><OBJECT_NAME>ORBCOMM FM111</OBJECT_NAME><OBJECT_ID>2014-040D</OBJECT_ID><CENTER_NAME>EARTH</CENTER_NAME><REF_FRAME>TEME</REF_FRAME><TIME_SYSTEM>UTC</TIME_SYSTEM><MEAN_ELEMENT_THEORY>SGP4</MEAN_ELEMENT_THEORY></metadata><data><meanElements><EPOCH>2025-06-16T03:25:50.641536</EPOCH><MEAN_MOTION>14.86299958</MEAN_MOTION><ECCENTRICITY>.0030428</ECCENTRICITY><INCLINATION>47.0022</INCLINATION><RA_OF_ASC_NODE>54.6883</RA_OF_ASC_NODE><ARG_OF_PERICENTER>188.2779</ARG_OF_PERICENTER><MEAN_ANOMALY>171.7619</MEAN_ANOMALY></meanElements><tleParameters><EPHEMERIS_TYPE>0</EPHEMERIS_TYPE><CLASSIFICATION_TYPE>U</CLASSIFICATION_TYPE><NORAD_CAT_ID>40089</NORAD_CAT_ID><ELEMENT_SET_NO>999</ELEMENT_SET_NO><REV_AT_EPOCH>59007</REV_AT_EPOCH><BSTAR>.23494E-3</BSTAR><MEAN_MOTION_DOT>.1887E-4</MEAN_MOTION_DOT><MEAN_MOTION_DDOT>0</MEAN_MOTION_DDOT></tleParameters></data></segment></body></omm>
<omm id="CCSDS_OMM_VERS" version="2.0">
<header><CREATION_DATE/><ORIGINATOR/></header><body><segment><metadata><OBJECT_NAME>ORBCOMM FM104</OBJECT_NAME><OBJECT_ID>2014-040E</OBJECT_ID><CENTER_NAME>EARTH</CENTER_NAME><REF_FRAME>TEME</REF_FRAME><TIME_SYSTEM>UTC</TIME_SYSTEM><MEAN_ELEMENT_THEORY>SGP4</MEAN_ELEMENT_THEORY></metadata><data><meanElements><EPOCH>2025-06-15T18:16:49.076832</EPOCH><MEAN_MOTION>14.56645815</MEAN_MOTION><ECCENTRICITY>.0016388</ECCENTRICITY><INCLINATION>47.0060</INCLINATION><RA_OF_ASC_NODE>57.5807</RA_OF_ASC_NODE><ARG_OF_PERICENTER>200.2749</ARG_OF_PERICENTER><MEAN_ANOMALY>159.7486</MEAN_ANOMALY></meanElements><tleParameters><EPHEMERIS_TYPE>0</EPHEMERIS_TYPE><CLASSIFICATION_TYPE>U</CLASSIFICATION_TYPE><NORAD_CAT_ID>40090</NORAD_CAT_ID><ELEMENT_SET_NO>999</ELEMENT_SET_NO><REV_AT_EPOCH>58041</REV_AT_EPOCH><BSTAR>.1217E-3</BSTAR><MEAN_MOTION_DOT>.378E-5</MEAN_MOTION_DOT><MEAN_MOTION_DDOT>0</MEAN_MOTION_DDOT></tleParameters></data></segment></body></omm>

</ndm>
