ORBCOMM FM37            
1 33064U 08031E   25166.73504701  .00001247  00000+0  19194-3 0  9995
2 33064  48.4414 350.5380 0005094   3.4033 103.5360 14.79768572913836
ORBCOMM FM40            
1 33065U 08031F   25166.92951844  .00001863  00000+0  25905-3 0  9992
2 33065  48.4423 333.6710 0006005  18.4826 144.1639 14.82026735913972
VESSELSAT 1             
1 37840U 11058C   25166.89759631  .00000336  00000+0  38754-4 0  9997
2 37840  19.9614 101.6859 0013718 171.8816 188.1812 14.11353963706352
ORBCOMM FM109           
1 40086U 14040A   25166.88326191  .00000440  00000+0  13102-3 0  9992
2 40086  47.0047  22.4516 0001885 323.4960  36.5797 14.58176675580876
ORBCOMM FM107           
1 40087U 14040B   25166.98047795  .00000550  00000+0  15434-3 0  9996
2 40087  47.0062  22.9580 0001598 272.6422  87.4280 14.58245021581009
ORBCOMM FM106           
1 40088U 14040C   25166.53192557  .00000618  00000+0  13488-3 0  9997
2 40088  47.0589 207.3127 0016019  56.7920 303.4505 14.69442917583231
ORBCOMM FM111           
1 40089U 14040D   25167.14294724  .00001887  00000+0  23494-3 0  9992
2 40089  47.0022  54.6883 0030428 188.2779 171.7619 14.86299958590075
ORBCOMM FM104           
1 40090U 14040E   25166.76167913  .00000378  00000+0  12170-3 0  9993
2 40090  47.0060  57.5807 0016388 200.2749 159.7486 14.56645815580417
